TIANMU-1 07             
1 57399U 23101A   26065.57454230  .00008352  00000+0  29795-3 0  9991
2 57399  97.2728 118.5929 0004609 142.4105 217.7458 15.29118809145964
STARLINK-36500          
1 67320U 26002R   26068.42424362  .00024944  00000+0  91420-3 0  9998
2 67320  42.9968 327.1737 0000643 351.1054   8.9786 15.27533622 11095
